,_id,FHRSID,ChangesByServerID,LocalAuthorityBusinessID,BusinessName,BusinessType,BusinessTypeID,AddressLine1,AddressLine2,AddressLine3,AddressLine4,PostCode,Phone,RatingValue,RatingKey,RatingDate,LocalAuthorityCode,LocalAuthorityName,LocalAuthorityWebSite,LocalAuthorityEmailAddress,scores,SchemeType,geocode,RightToReply,Distance,NewRatingPending,meta,links
0,64a842f9c0f991748bd530b8,1069652,0,PI/000206841,TIWA N TIWA African Restaurant Ltd,Restaurant/Cafe/Canteen,1,152 Plumstead High Street,,Plumstead,Greenwich,SE18 1JQ,,5,fhrs_5_en-gb,2020-10-24T00:00:00,511,Greenwich,http://www.royalgreenwich.gov.uk,health@royalgreenwich.gov.uk,"{'Hygiene': 5, 'Structural': 5, 'ConfidenceInManagement': 5}",FHRS,"{'longitude': 0.0927429, 'latitude': 51.4870351}",,4646.930146257832,False,"{'dataSource': None, 'extractDate': '0001-01-01T00:00:00', 'itemCount': 0, 'returncode': None, 'totalCount': 0, 'totalPages': 0, 'pageSize': 0, 'pageNumber': 0}","[{'rel': 'self', 'href': 'http://api.ratings.food.gov.uk/establishments/1069652'}]"
1,64a842f9c0f991748bd53199,694606,0,PI/000116584,Fineway Cash & Carry,Retailers - other,4613,112 Plumstead High Street,,Plumstead,Greenwich,SE18 1SJ,,5,fhrs_5_en-gb,2020-10-20T00:00:00,511,Greenwich,http://www.royalgreenwich.gov.uk,health@royalgreenwich.gov.uk,"{'Hygiene': 5, 'Structural': 5, 'ConfidenceInManagement': 5}",FHRS,"{'longitude': 0.0909382, 'latitude': 51.4876089}",,4647.016995291011,False,"{'dataSource': None, 'extractDate': '0001-01-01T00:00:00', 'itemCount': 0, 'returncode': None, 'totalCount': 0, 'totalPages': 0, 'pageSize': 0, 'pageNumber': 0}","[{'rel': 'self', 'href': 'http://api.ratings.food.gov.uk/establishments/694606'}]"
2,64a842f9c0f991748bd531a9,695287,0,PI/000182135,Lucky Food & Wine,Retailers - other,4613,101 Plumstead High Street,,Plumstead,Greenwich,SE18 1SB,,5,fhrs_5_en-gb,2022-06-25T00:00:00,511,Greenwich,http://www.royalgreenwich.gov.uk,health@royalgreenwich.gov.uk,"{'Hygiene': 5, 'Structural': 5, 'ConfidenceInManagement': 5}",FHRS,"{'longitude': 0.0910104, 'latitude': 51.4878934}",,4647.024793263386,False,"{'dataSource': None, 'extractDate': '0001-01-01T00:00:00', 'itemCount': 0, 'returncode': None, 'totalCount': 0, 'totalPages': 0, 'pageSize': 0, 'pageNumber': 0}","[{'rel': 'self', 'href': 'http://api.ratings.food.gov.uk/establishments/695287'}]"
3,64a842f9c0f991748bd531c4,695566,0,PI/000188497,Premier Express,Retailers - other,4613,102 Plumstead High Street,,Plumstead,Greenwich,SE18 1SJ,,5,fhrs_5_en-gb,2021-06-10T00:00:00,511,Greenwich,http://www.royalgreenwich.gov.uk,health@royalgreenwich.gov.uk,"{'Hygiene': 5, 'Structural': 0, 'ConfidenceInManagement': 0}",FHRS,"{'longitude': 0.0904552, 'latitude': 51.4877234}",,4647.038806595731,False,"{'dataSource': None, 'extractDate': '0001-01-01T00:00:00', 'itemCount': 0, 'returncode': None, 'totalCount': 0, 'totalPages': 0, 'pageSize': 0, 'pageNumber': 0}","[{'rel': 'self', 'href': 'http://api.ratings.food.gov.uk/establishments/695566'}]"
4,64a842f9c0f991748bd531d0,695033,0,PI/000172986,Everest Stores Ltd,Retailers - other,4613,104 Plumstead High Street,,Plumstead,Greenwich,SE18 1SJ,,5,fhrs_5_en-gb,2021-09-13T00:00:00,511,Greenwich,http://www.royalgreenwich.gov.uk,health@royalgreenwich.gov.uk,"{'Hygiene': 5, 'Structural': 5, 'ConfidenceInManagement': 5}",FHRS,"{'longitude': 0.0903232, 'latitude': 51.4876718}",,4647.041728368117,False,"{'dataSource': None, 'extractDate': '0001-01-01T00:00:00', 'itemCount': 0, 'returncode': None, 'totalCount': 0, 'totalPages': 0, 'pageSize': 0, 'pageNumber': 0}","[{'rel': 'self', 'href': 'http://api.ratings.food.gov.uk/establishments/695033'}]"
5,64a842f9c0f991748bd531f8,1298993,0,13950,The Plumstead Pantry,Restaurant/Cafe/Canteen,1,16 Warwick Terrace,,Plumstead,Greenwich,SE18 1QJ,,5,fhrs_5_en-gb,2021-04-01T00:00:00,511,Greenwich,http://www.royalgreenwich.gov.uk,health@royalgreenwich.gov.uk,"{'Hygiene': 5, 'Structural': 5, 'ConfidenceInManagement': 5}",FHRS,"{'longitude': 0.083745, 'latitude': 51.4817727}",,4647.0653847124595,False,"{'dataSource': None, 'extractDate': '0001-01-01T00:00:00', 'itemCount': 0, 'returncode': None, 'totalCount': 0, 'totalPages': 0, 'pageSize': 0, 'pageNumber': 0}","[{'rel': 'self', 'href': 'http://api.ratings.food.gov.uk/establishments/1298993'}]"
6,64a842f9c0f991748bd53254,694596,0,PI/000116263,Spice Island,Restaurant/Cafe/Canteen,1,204 Plumstead Common Road,,Plumstead,Greenwich,SE18 2RS,,5,fhrs_5_en-gb,2022-03-16T00:00:00,511,Greenwich,http://www.royalgreenwich.gov.uk,health@royalgreenwich.gov.uk,"{'Hygiene': 5, 'Structural': 0, 'ConfidenceInManagement': 5}",FHRS,"{'longitude': 0.0812250003218651, 'latitude': 51.4804420471191}",,4647.108530611648,False,"{'dataSource': None, 'extractDate': '0001-01-01T00:00:00', 'itemCount': 0, 'returncode': None, 'totalCount': 0, 'totalPages': 0, 'pageSize': 0, 'pageNumber': 0}","[{'rel': 'self', 'href': 'http://api.ratings.food.gov.uk/establishments/694596'}]"
7,64a842f9c0f991748bd532d2,1226528,0,13342,Apna Grill,Restaurant/Cafe/Canteen,1,14 Conway Road,,Plumstead,Greenwich,SE18 1AH,,5,fhrs_5_en-gb,2020-08-20T00:00:00,511,Greenwich,http://www.royalgreenwich.gov.uk,health@royalgreenwich.gov.uk,"{'Hygiene': 5, 'Structural': 5, 'ConfidenceInManagement': 5}",FHRS,"{'longitude': 0.0857591, 'latitude': 51.4870876}",,4647.186753674302,False,"{'dataSource': None, 'extractDate': '0001-01-01T00:00:00', 'itemCount': 0, 'returncode': None, 'totalCount': 0, 'totalPages': 0, 'pageSize': 0, 'pageNumber': 0}","[{'rel': 'self', 'href': 'http://api.ratings.food.gov.uk/establishments/1226528'}]"
8,64a842f9c0f991748bd532d5,1152320,0,12806,Flames Kebab Ltd trading as Morley's,Takeaway/sandwich shop,7844,191 Plumstead Common Road,,Plumstead,Greenwich,SE18 2UJ,,5,fhrs_5_en-gb,2022-01-12T00:00:00,511,Greenwich,http://www.royalgreenwich.gov.uk,health@royalgreenwich.gov.uk,"{'Hygiene': 5, 'Structural': 0, 'ConfidenceInManagement': 5}",FHRS,"{'longitude': 0.0796803, 'latitude': 51.4810714}",,4647.187942950943,False,"{'dataSource': None, 'extractDate': '0001-01-01T00:00:00', 'itemCount': 0, 'returncode': None, 'totalCount': 0, 'totalPages': 0, 'pageSize': 0, 'pageNumber': 0}","[{'rel': 'self', 'href': 'http://api.ratings.food.gov.uk/establishments/1152320'}]"
9,64a842f9c0f991748bd532d7,1031342,0,PI/000205344,Conway Road Supermarket,Retailers - other,4613,13 Conway Road,,Plumstead,Greenwich,SE18 1AH,,5,fhrs_5_en-gb,2020-10-24T00:00:00,511,Greenwich,http://www.royalgreenwich.gov.uk,health@royalgreenwich.gov.uk,"{'Hygiene': 5, 'Structural': 5, 'ConfidenceInManagement': 5}",FHRS,"{'longitude': 0.0858713, 'latitude': 51.4873374}",,4647.191819228341,False,"{'dataSource': None, 'extractDate': '0001-01-01T00:00:00', 'itemCount': 0, 'returncode': None, 'totalCount': 0, 'totalPages': 0, 'pageSize': 0, 'pageNumber': 0}","[{'rel': 'self', 'href': 'http://api.ratings.food.gov.uk/establishments/1031342'}]"
10,64a842f9c0f991748bd532e9,1451406,0,14958,The Plum Tree Beer Shop,Pub/bar/nightclub,7843,154 Plumstead Common Road,,Plumstead,Greenwich,SE18 2UL,,5,fhrs_5_en-gb,2022-02-23T00:00:00,511,Greenwich,http://www.royalgreenwich.gov.uk,health@royalgreenwich.gov.uk,"{'Hygiene': 5, 'Structural': 0, 'ConfidenceInManagement': 5}",FHRS,"{'longitude': 0.078661, 'latitude': 51.4808287}",,4647.216229043659,False,"{'dataSource': None, 'extractDate': '0001-01-01T00:00:00', 'itemCount': 0, 'returncode': None, 'totalCount': 0, 'totalPages': 0, 'pageSize': 0, 'pageNumber': 0}","[{'rel': 'self', 'href': 'http://api.ratings.food.gov.uk/establishments/1451406'}]"
11,64a842f9c0f991748bd532f6,695651,0,PI/000191153,Chef's House,Takeaway/sandwich shop,7844,128 Plumstead Common Road,,Plumstead,Greenwich,SE18 2UL,,5,fhrs_5_en-gb,2021-05-21T00:00:00,511,Greenwich,http://www.royalgreenwich.gov.uk,health@royalgreenwich.gov.uk,"{'Hygiene': 5, 'Structural': 5, 'ConfidenceInManagement': 0}",FHRS,"{'longitude': 0.0785060003399849, 'latitude': 51.4808120727539}",,4647.221273650149,False,"{'dataSource': None, 'extractDate': '0001-01-01T00:00:00', 'itemCount': 0, 'returncode': None, 'totalCount': 0, 'totalPages': 0, 'pageSize': 0, 'pageNumber': 0}","[{'rel': 'self', 'href': 'http://api.ratings.food.gov.uk/establishments/695651'}]"
12,64a842f9c0f991748bd53325,723994,0,PI/000069581,Cafe Deluxe,Restaurant/Cafe/Canteen,1,1A Griffin Road,,Plumstead,Greenwich,SE18 7QG,,5,fhrs_5_en-gb,2020-10-24T00:00:00,511,Greenwich,http://www.royalgreenwich.gov.uk,health@royalgreenwich.gov.uk,"{'Hygiene': 5, 'Structural': 5, 'ConfidenceInManagement': 5}",FHRS,"{'longitude': 0.0857646, 'latitude': 51.4891019}",,4647.26039530354,False,"{'dataSource': None, 'extractDate': '0001-01-01T00:00:00', 'itemCount': 0, 'returncode': None, 'totalCount': 0, 'totalPages': 0, 'pageSize': 0, 'pageNumber': 0}","[{'rel': 'self', 'href': 'http://api.ratings.food.gov.uk/establishments/723994'}]"
13,64a842f9c0f991748bd5332c,1250850,0,13438,Malai Restaurant/Ghandi's/Sweet Sensationz/JusBoba,Restaurant/Cafe/Canteen,1,8 Plumstead High Street,,Plumstead,Greenwich,SE18 1SN,,5,fhrs_5_en-gb,2021-06-23T00:00:00,511,Greenwich,http://www.royalgreenwich.gov.uk,health@royalgreenwich.gov.uk,"{'Hygiene': 5, 'Structural': 0, 'ConfidenceInManagement': 0}",FHRS,"{'longitude': 0.0859184, 'latitude': 51.489315}",,4647.2625988326445,False,"{'dataSource': None, 'extractDate': '0001-01-01T00:00:00', 'itemCount': 0, 'returncode': None, 'totalCount': 0, 'totalPages': 0, 'pageSize': 0, 'pageNumber': 0}","[{'rel': 'self', 'href': 'http://api.ratings.food.gov.uk/establishments/1250850'}]"
14,64a842f9c0f991748bd53337,694625,0,PI/000117239,Mr Uncles Kebab,Restaurant/Cafe/Canteen,1,6 Plumstead High Street,,Plumstead,Greenwich,SE18 1SN,,5,fhrs_5_en-gb,2021-10-07T00:00:00,511,Greenwich,http://www.royalgreenwich.gov.uk,health@royalgreenwich.gov.uk,"{'Hygiene': 5, 'Structural': 5, 'ConfidenceInManagement': 5}",FHRS,"{'longitude': 0.0858325, 'latitude': 51.4893255}",,4647.2661162513805,False,"{'dataSource': None, 'extractDate': '0001-01-01T00:00:00', 'itemCount': 0, 'returncode': None, 'totalCount': 0, 'totalPages': 0, 'pageSize': 0, 'pageNumber': 0}","[{'rel': 'self', 'href': 'http://api.ratings.food.gov.uk/establishments/694625'}]"
15,64a842f9c0f991748bd5334e,694838,0,PI/000154235,Plumstead Radical Club,Pub/bar/nightclub,7843,Plumstead Radical Club 83 - 88 Walmer Terrace,,Plumstead,Greenwich,SE18 7DZ,,5,fhrs_5_en-gb,2020-09-05T00:00:00,511,Greenwich,http://www.royalgreenwich.gov.uk,health@royalgreenwich.gov.uk,"{'Hygiene': 5, 'Structural': 5, 'ConfidenceInManagement': 5}",FHRS,"{'longitude': 0.084697000682354, 'latitude': 51.4893112182617}",,4647.30700092017,False,"{'dataSource': None, 'extractDate': '0001-01-01T00:00:00', 'itemCount': 0, 'returncode': None, 'totalCount': 0, 'totalPages': 0, 'pageSize': 0, 'pageNumber': 0}","[{'rel': 'self', 'href': 'http://api.ratings.food.gov.uk/establishments/694838'}]"
16,64a842f9c0f991748bd53360,694128,0,PI/000020389,Nisa Local,Retailers - other,4613,15 Brewery Road,,Plumstead,Greenwich,SE18 7PX,,5,fhrs_5_en-gb,2020-09-05T00:00:00,511,Greenwich,http://www.royalgreenwich.gov.uk,health@royalgreenwich.gov.uk,"{'Hygiene': 5, 'Structural': 0, 'ConfidenceInManagement': 0}",FHRS,"{'longitude': 0.0809311, 'latitude': 51.4861922}",,4647.330009842794,False,"{'dataSource': None, 'extractDate': '0001-01-01T00:00:00', 'itemCount': 0, 'returncode': None, 'totalCount': 0, 'totalPages': 0, 'pageSize': 0, 'pageNumber': 0}","[{'rel': 'self', 'href': 'http://api.ratings.food.gov.uk/establishments/694128'}]"
17,64a842f9c0f991748bd53367,1300359,0,13959,Brew Station,Restaurant/Cafe/Canteen,1,158A Plumstead Road,,Woolwich,Greenwich,SE18 7DY,,5,fhrs_5_en-gb,2020-12-18T00:00:00,511,Greenwich,http://www.royalgreenwich.gov.uk,health@royalgreenwich.gov.uk,"{'Hygiene': 5, 'Structural': 0, 'ConfidenceInManagement': 5}",FHRS,"{'longitude': 0.0846755, 'latitude': 51.4899426}",,4647.330930511907,False,"{'dataSource': None, 'extractDate': '0001-01-01T00:00:00', 'itemCount': 0, 'returncode': None, 'totalCount': 0, 'totalPages': 0, 'pageSize': 0, 'pageNumber': 0}","[{'rel': 'self', 'href': 'http://api.ratings.food.gov.uk/establishments/1300359'}]"
18,64a842f9c0f991748bd5344a,947998,0,PI/000202511,GMT Kitchen and Cafe,Restaurant/Cafe/Canteen,1,95 Plumstead Road,,Woolwich,Greenwich,SE18 7DQ,,5,fhrs_5_en-gb,2022-03-23T00:00:00,511,Greenwich,http://www.royalgreenwich.gov.uk,health@royalgreenwich.gov.uk,"{'Hygiene': 5, 'Structural': 5, 'ConfidenceInManagement': 0}",FHRS,"{'longitude': 0.0787421, 'latitude': 51.4903331}",,4647.56162094585,False,"{'dataSource': None, 'extractDate': '0001-01-01T00:00:00', 'itemCount': 0, 'returncode': None, 'totalCount': 0, 'totalPages': 0, 'pageSize': 0, 'pageNumber': 0}","[{'rel': 'self', 'href': 'http://api.ratings.food.gov.uk/establishments/947998'}]"
19,64a842f9c0f991748bd534fa,1385142,0,14492,Heronsgate Primary School Royal Arsenal Campus,School/college/university,7845,Heronsgate Primary School Burrage Grove Campus Burrage Grove,,Plumstead,Greenwich,SE18 7LJ,,5,fhrs_5_en-gb,2021-10-14T00:00:00,511,Greenwich,http://www.royalgreenwich.gov.uk,health@royalgreenwich.gov.uk,"{'Hygiene': 5, 'Structural': 5, 'ConfidenceInManagement': 0}",FHRS,"{'longitude': 0.074074998497963, 'latitude': 51.4898490905762}",,4647.714088390572,False,"{'dataSource': None, 'extractDate': '0001-01-01T00:00:00', 'itemCount': 0, 'returncode': None, 'totalCount': 0, 'totalPages': 0, 'pageSize': 0, 'pageNumber': 0}","[{'rel': 'self', 'href': 'http://api.ratings.food.gov.uk/establishments/1385142'}]"
20,64a842f9c0f991748bd5350c,1156702,0,12845,PLOT Roasting,Other catering premises,7841,Unit 38 The I O Centre Armstrong Road,,Woolwich,Greenwich,SE18 6RS,,5,fhrs_5_en-gb,2020-10-16T00:00:00,511,Greenwich,http://www.royalgreenwich.gov.uk,health@royalgreenwich.gov.uk,"{'Hygiene': 5, 'Structural': 5, 'ConfidenceInManagement': 5}",FHRS,"{'longitude': 0.0770593, 'latitude': 51.4935863}",,4647.742227445188,False,"{'dataSource': None, 'extractDate': '0001-01-01T00:00:00', 'itemCount': 0, 'returncode': None, 'totalCount': 0, 'totalPages': 0, 'pageSize': 0, 'pageNumber': 0}","[{'rel': 'self', 'href': 'http://api.ratings.food.gov.uk/establishments/1156702'}]"
21,64a842f9c0f991748bd530dc,695223,0,PI/000178842,Iceland,Retailers - supermarkets/hypermarkets,7840,144 - 146 Plumstead High Street,,Plumstead,Greenwich,SE18 1JQ,,5,fhrs_5_en-gb,2019-11-13T00:00:00,511,Greenwich,http://www.royalgreenwich.gov.uk,health@royalgreenwich.gov.uk,"{'Hygiene': 0, 'Structural': 5, 'ConfidenceInManagement': 5}",FHRS,"{'longitude': 0.0924199968576431, 'latitude': 51.4871482849121}",,4646.946071297699,False,"{'dataSource': None, 'extractDate': '0001-01-01T00:00:00', 'itemCount': 0, 'returncode': None, 'totalCount': 0, 'totalPages': 0, 'pageSize': 0, 'pageNumber': 0}","[{'rel': 'self', 'href': 'http://api.ratings.food.gov.uk/establishments/695223'}]"
22,64a842f9c0f991748bd530f0,1380578,0,14425,Howe and Co Fish and Chips - Van 17,Mobile caterer,7846,Restaurant And Premises 107A Plumstead High Street,,Plumstead,Greenwich,SE18 1SE,,5,fhrs_5_en-gb,2021-11-11T00:00:00,511,Greenwich,http://www.royalgreenwich.gov.uk,health@royalgreenwich.gov.uk,"{'Hygiene': 0, 'Structural': 0, 'ConfidenceInManagement': 0}",FHRS,"{'longitude': 0.0925370007753372, 'latitude': 51.4875335693359}",,4646.95593107927,False,"{'dataSource': None, 'extractDate': '0001-01-01T00:00:00', 'itemCount': 0, 'returncode': None, 'totalCount': 0, 'totalPages': 0, 'pageSize': 0, 'pageNumber': 0}","[{'rel': 'self', 'href': 'http://api.ratings.food.gov.uk/establishments/1380578'}]"
23,64a842f9c0f991748bd5310b,694609,0,PI/000116619,Volunteer,Pub/bar/nightclub,7843,130 - 132 Plumstead High Street,,Plumstead,Greenwich,SE18 1JQ,,5,fhrs_5_en-gb,2019-08-05T00:00:00,511,Greenwich,http://www.royalgreenwich.gov.uk,health@royalgreenwich.gov.uk,"{'Hygiene': 0, 'Structural': 0, 'ConfidenceInManagement': 0}",FHRS,"{'longitude': 0.09208, 'latitude': 51.4873437}",,4646.965634598608,False,"{'dataSource': None, 'extractDate': '0001-01-01T00:00:00', 'itemCount': 0, 'returncode': None, 'totalCount': 0, 'totalPages': 0, 'pageSize': 0, 'pageNumber': 0}","[{'rel': 'self', 'href': 'http://api.ratings.food.gov.uk/establishments/694609'}]"
24,64a842f9c0f991748bd53125,694478,0,PI/000086506,Atlantic Fish Bar,Takeaway/sandwich shop,7844,35 Lakedale Road,,Plumstead,Greenwich,SE18 1PR,,5,fhrs_5_en-gb,2021-06-16T00:00:00,511,Greenwich,http://www.royalgreenwich.gov.uk,health@royalgreenwich.gov.uk,"{'Hygiene': 0, 'Structural': 0, 'ConfidenceInManagement': 5}",FHRS,"{'longitude': 0.0912164, 'latitude': 51.4867296}",,4646.974611855838,False,"{'dataSource': None, 'extractDate': '0001-01-01T00:00:00', 'itemCount': 0, 'returncode': None, 'totalCount': 0, 'totalPages': 0, 'pageSize': 0, 'pageNumber': 0}","[{'rel': 'self', 'href': 'http://api.ratings.food.gov.uk/establishments/694478'}]"
25,64a842f9c0f991748bd53127,695241,0,PI/000179088,Plumstead Manor Nursery,Caring Premises,5,Plumstead Manor School Old Mill Road,,Plumstead,Greenwich,SE18 1QG,,5,fhrs_5_en-gb,2021-06-16T00:00:00,511,Greenwich,http://www.royalgreenwich.gov.uk,health@royalgreenwich.gov.uk,"{'Hygiene': 0, 'Structural': 0, 'ConfidenceInManagement': 5}",FHRS,"{'longitude': 0.0859939977526665, 'latitude': 51.481517791748}",,4646.9740101340385,False,"{'dataSource': None, 'extractDate': '0001-01-01T00:00:00', 'itemCount': 0, 'returncode': None, 'totalCount': 0, 'totalPages': 0, 'pageSize': 0, 'pageNumber': 0}","[{'rel': 'self', 'href': 'http://api.ratings.food.gov.uk/establishments/695241'}]"
26,64a842f9c0f991748bd5312c,909912,0,PI/000201100,Lumbini Grocery Ltd T/A Al-Iman,Retailers - other,4613,17 Lakedale Road,,Plumstead,Greenwich,SE18 1PP,,5,fhrs_5_en-gb,2020-10-20T00:00:00,511,Greenwich,http://www.royalgreenwich.gov.uk,health@royalgreenwich.gov.uk,"{'Hygiene': 0, 'Structural': 5, 'ConfidenceInManagement': 0}",FHRS,"{'longitude': 0.0916256, 'latitude': 51.4871632}",,4646.975587048333,False,"{'dataSource': None, 'extractDate': '0001-01-01T00:00:00', 'itemCount': 0, 'returncode': None, 'totalCount': 0, 'totalPages': 0, 'pageSize': 0, 'pageNumber': 0}","[{'rel': 'self', 'href': 'http://api.ratings.food.gov.uk/establishments/909912'}]"
27,64a842f9c0f991748bd53147,694482,0,PI/000086551,Greggs,Takeaway/sandwich shop,7844,6 Lakedale Road,,Plumstead,Greenwich,SE18 1PP,,5,fhrs_5_en-gb,2021-06-23T00:00:00,511,Greenwich,http://www.royalgreenwich.gov.uk,health@royalgreenwich.gov.uk,"{'Hygiene': 0, 'Structural': 0, 'ConfidenceInManagement': 0}",FHRS,"{'longitude': 0.0912820026278496, 'latitude': 51.4871406555176}",,4646.987290353701,False,"{'dataSource': None, 'extractDate': '0001-01-01T00:00:00', 'itemCount': 0, 'returncode': None, 'totalCount': 0, 'totalPages': 0, 'pageSize': 0, 'pageNumber': 0}","[{'rel': 'self', 'href': 'http://api.ratings.food.gov.uk/establishments/694482'}]"
28,64a842f9c0f991748bd53149,695204,0,PI/000177985,Tesco,Retailers - supermarkets/hypermarkets,7840,18 Lakedale Road,,Plumstead,Greenwich,SE18 1PP,,5,fhrs_5_en-gb,2020-10-20T00:00:00,511,Greenwich,http://www.royalgreenwich.gov.uk,health@royalgreenwich.gov.uk,"{'Hygiene': 0, 'Structural': 5, 'ConfidenceInManagement': 0}",FHRS,"{'longitude': 0.0912820026278496, 'latitude': 51.4871406555176}",,4646.987290353701,False,"{'dataSource': None, 'extractDate': '0001-01-01T00:00:00', 'itemCount': 0, 'returncode': None, 'totalCount': 0, 'totalPages': 0, 'pageSize': 0, 'pageNumber': 0}","[{'rel': 'self', 'href': 'http://api.ratings.food.gov.uk/establishments/695204'}]"
29,64a842f9c0f991748bd53170,1211907,0,13217,Dosa & Sambal Express,Restaurant/Cafe/Canteen,1,107A Plumstead High Street,,Plumstead,Greenwich,,,5,fhrs_5_en-gb,2020-07-09T00:00:00,511,Greenwich,http://www.royalgreenwich.gov.uk,health@royalgreenwich.gov.uk,"{'Hygiene': 0, 'Structural': 0, 'ConfidenceInManagement': 5}",FHRS,"{'longitude': 0.091566, 'latitude': 51.4877576}",,4646.999553676595,False,"{'dataSource': None, 'extractDate': '0001-01-01T00:00:00', 'itemCount': 0, 'returncode': None, 'totalCount': 0, 'totalPages': 0, 'pageSize': 0, 'pageNumber': 0}","[{'rel': 'self', 'href': 'http://api.ratings.food.gov.uk/establishments/1211907'}]"
30,64a842f9c0f991748bd53171,940026,0,PI/000177403,Abbi Wines,Retailers - other,4613,12 - 14 Lakedale Road,,Plumstead,Greenwich,SE18 1PP,,5,fhrs_5_en-gb,2021-08-23T00:00:00,511,Greenwich,http://www.royalgreenwich.gov.uk,health@royalgreenwich.gov.uk,"{'Hygiene': 0, 'Structural': 0, 'ConfidenceInManagement': 0}",FHRS,"{'longitude': 0.0908895, 'latitude': 51.4871401}",,4647.001583335365,False,"{'dataSource': None, 'extractDate': '0001-01-01T00:00:00', 'itemCount': 0, 'returncode': None, 'totalCount': 0, 'totalPages': 0, 'pageSize': 0, 'pageNumber': 0}","[{'rel': 'self', 'href': 'http://api.ratings.food.gov.uk/establishments/940026'}]"
31,64a842f9c0f991748bd531b9,694604,0,PI/000116545,Dadoo's Foodstore,Retailers - other,4613,106 Plumstead High Street,,Plumstead,Greenwich,,,5,fhrs_5_en-gb,2020-01-16T00:00:00,511,Greenwich,http://www.royalgreenwich.gov.uk,health@royalgreenwich.gov.uk,"{'Hygiene': 0, 'Structural': 5, 'ConfidenceInManagement': 5}",FHRS,"{'longitude': 0.0905233, 'latitude': 51.4876894}",,4647.035076669946,False,"{'dataSource': None, 'extractDate': '0001-01-01T00:00:00', 'itemCount': 0, 'returncode': None, 'totalCount': 0, 'totalPages': 0, 'pageSize': 0, 'pageNumber': 0}","[{'rel': 'self', 'href': 'http://api.ratings.food.gov.uk/establishments/694604'}]"
32,64a842f9c0f991748bd531cc,695400,0,PI/000184827,Dilkush Tandoori,Takeaway/sandwich shop,7844,99 Plumstead High Street,,Plumstead,Greenwich,SE18 1SB,,5,fhrs_5_en-gb,2021-06-10T00:00:00,511,Greenwich,http://www.royalgreenwich.gov.uk,health@royalgreenwich.gov.uk,"{'Hygiene': 0, 'Structural': 5, 'ConfidenceInManagement': 0}",FHRS,"{'longitude': 0.0909672, 'latitude': 51.4878941}",,4647.026394268489,False,"{'dataSource': None, 'extractDate': '0001-01-01T00:00:00', 'itemCount': 0, 'returncode': None, 'totalCount': 0, 'totalPages': 0, 'pageSize': 0, 'pageNumber': 0}","[{'rel': 'self', 'href': 'http://api.ratings.food.gov.uk/establishments/695400'}]"
33,64a842f9c0f991748bd531cf,815071,0,PI/000198802,High Street News & Wine,Retailers - other,4613,104 Plumstead High Street,,Plumstead,Greenwich,SE18 1SJ,,5,fhrs_5_en-gb,2021-01-19T00:00:00,511,Greenwich,http://www.royalgreenwich.gov.uk,health@royalgreenwich.gov.uk,"{'Hygiene': 0, 'Structural': 5, 'ConfidenceInManagement': 0}",FHRS,"{'longitude': 0.0903232, 'latitude': 51.4876718}",,4647.041728368117,False,"{'dataSource': None, 'extractDate': '0001-01-01T00:00:00', 'itemCount': 0, 'returncode': None, 'totalCount': 0, 'totalPages': 0, 'pageSize': 0, 'pageNumber': 0}","[{'rel': 'self', 'href': 'http://api.ratings.food.gov.uk/establishments/815071'}]"
34,64a842f9c0f991748bd531df,694555,0,PI/000111022,The Old Mill,Pub/bar/nightclub,7843,The Old Mill 1 Old Mill Road,,Plumstead,Greenwich,SE18 1QG,,5,fhrs_5_en-gb,2022-03-16T00:00:00,511,Greenwich,http://www.royalgreenwich.gov.uk,health@royalgreenwich.gov.uk,"{'Hygiene': 0, 'Structural': 5, 'ConfidenceInManagement': 5}",FHRS,"{'longitude': 0.0840959, 'latitude': 51.4817109}",,4647.050320500107,False,"{'dataSource': None, 'extractDate': '0001-01-01T00:00:00', 'itemCount': 0, 'returncode': None, 'totalCount': 0, 'totalPages': 0, 'pageSize': 0, 'pageNumber': 0}","[{'rel': 'self', 'href': 'http://api.ratings.food.gov.uk/establishments/694555'}]"
35,64a842f9c0f991748bd531f9,732579,0,PI/000116525,The Belfry,Pub/bar/nightclub,7843,100 Plumstead High Street,,Plumstead,Greenwich,SE18 1SJ,,5,fhrs_5_en-gb,2021-08-28T00:00:00,511,Greenwich,http://www.royalgreenwich.gov.uk,health@royalgreenwich.gov.uk,"{'Hygiene': 0, 'Structural': 0, 'ConfidenceInManagement': 0}",FHRS,"{'longitude': 0.0900757, 'latitude': 51.487928}",,4647.06014692546,False,"{'dataSource': None, 'extractDate': '0001-01-01T00:00:00', 'itemCount': 0, 'returncode': None, 'totalCount': 0, 'totalPages': 0, 'pageSize': 0, 'pageNumber': 0}","[{'rel': 'self', 'href': 'http://api.ratings.food.gov.uk/establishments/732579'}]"
36,64a842f9c0f991748bd5320a,694629,0,PI/000117347,Chick Chicken,Restaurant/Cafe/Canteen,1,98B Plumstead High Street,,Plumstead,Greenwich,SE18 1SL,,5,fhrs_5_en-gb,2020-07-20T00:00:00,511,Greenwich,http://www.royalgreenwich.gov.uk,health@royalgreenwich.gov.uk,"{'Hygiene': 0, 'Structural': 5, 'ConfidenceInManagement': 5}",FHRS,"{'longitude': 0.0897508, 'latitude': 51.4880687}",,4647.077153359202,False,"{'dataSource': None, 'extractDate': '0001-01-01T00:00:00', 'itemCount': 0, 'returncode': None, 'totalCount': 0, 'totalPages': 0, 'pageSize': 0, 'pageNumber': 0}","[{'rel': 'self', 'href': 'http://api.ratings.food.gov.uk/establishments/694629'}]"
37,64a842f9c0f991748bd5320f,694338,0,PI/000061059,Conway Primary School,School/college/university,7845,Conway Primary School Gallosson Road,,Plumstead,Greenwich,SE18 1QY,,5,fhrs_5_en-gb,2022-06-09T00:00:00,511,Greenwich,http://www.royalgreenwich.gov.uk,health@royalgreenwich.gov.uk,"{'Hygiene': 0, 'Structural': 5, 'ConfidenceInManagement': 0}",FHRS,"{'longitude': 0.0894860029220581, 'latitude': 51.487865447998}",,4647.079357879319,False,"{'dataSource': None, 'extractDate': '0001-01-01T00:00:00', 'itemCount': 0, 'returncode': None, 'totalCount': 0, 'totalPages': 0, 'pageSize': 0, 'pageNumber': 0}","[{'rel': 'self', 'href': 'http://api.ratings.food.gov.uk/establishments/694338'}]"
38,64a842f9c0f991748bd53220,1100050,0,12389,Best Halal Meat Limited,Retailers - other,4613,94 Plumstead High Street,,Plumstead,Greenwich,SE18 1SL,,5,fhrs_5_en-gb,2021-11-17T00:00:00,511,Greenwich,http://www.royalgreenwich.gov.uk,health@royalgreenwich.gov.uk,"{'Hygiene': 0, 'Structural': 0, 'ConfidenceInManagement': 5}",FHRS,"{'longitude': 0.089611, 'latitude': 51.4881611}",,4647.085639006036,False,"{'dataSource': None, 'extractDate': '0001-01-01T00:00:00', 'itemCount': 0, 'returncode': None, 'totalCount': 0, 'totalPages': 0, 'pageSize': 0, 'pageNumber': 0}","[{'rel': 'self', 'href': 'http://api.ratings.food.gov.uk/establishments/1100050'}]"
39,64a842f9c0f991748bd5323e,1382055,0,14436,Boba & Co UK,Other catering premises,7841,90 Plumstead High Street,,Plumstead,Greenwich,SE18 1SL,,5,fhrs_5_en-gb,2021-08-02T00:00:00,511,Greenwich,http://www.royalgreenwich.gov.uk,health@royalgreenwich.gov.uk,"{'Hygiene': 0, 'Structural': 0, 'ConfidenceInManagement': 0}",FHRS,"{'longitude': 0.0895246, 'latitude': 51.4881627}",,4647.088848370269,False,"{'dataSource': None, 'extractDate': '0001-01-01T00:00:00', 'itemCount': 0, 'returncode': None, 'totalCount': 0, 'totalPages': 0, 'pageSize': 0, 'pageNumber': 0}","[{'rel': 'self', 'href': 'http://api.ratings.food.gov.uk/establishments/1382055'}]"
40,64a842f9c0f991748bd5324f,1028778,0,PI/000204596,Poundland,Retailers - supermarkets/hypermarkets,7840,148 - 156 Plumstead High Street,,Plumstead,Greenwich,,,5,fhrs_5_en-gb,2021-06-10T00:00:00,511,Greenwich,http://www.royalgreenwich.gov.uk,health@royalgreenwich.gov.uk,"{'Hygiene': 0, 'Structural': 5, 'ConfidenceInManagement': 0}",FHRS,"{'longitude': 0.0893575026992294, 'latitude': 51.4884195010951}",,4647.104356784928,False,"{'dataSource': None, 'extractDate': '0001-01-01T00:00:00', 'itemCount': 0, 'returncode': None, 'totalCount': 0, 'totalPages': 0, 'pageSize': 0, 'pageNumber': 0}","[{'rel': 'self', 'href': 'http://api.ratings.food.gov.uk/establishments/1028778'}]"
41,64a842f9c0f991748bd53263,1063080,0,PI/000206865,SD News & Mini Market,Retailers - other,4613,59 Waverley Crescent,,Plumstead,Greenwich,SE18 7QU,,5,fhrs_5_en-gb,2021-06-23T00:00:00,511,Greenwich,http://www.royalgreenwich.gov.uk,health@royalgreenwich.gov.uk,"{'Hygiene': 0, 'Structural': 0, 'ConfidenceInManagement': 5}",FHRS,"{'longitude': 0.0831020027399063, 'latitude': 51.4827461242676}",,4647.124518127556,False,"{'dataSource': None, 'extractDate': '0001-01-01T00:00:00', 'itemCount': 0, 'returncode': None, 'totalCount': 0, 'totalPages': 0, 'pageSize': 0, 'pageNumber': 0}","[{'rel': 'self', 'href': 'http://api.ratings.food.gov.uk/establishments/1063080'}]"
42,64a842f9c0f991748bd53271,1396464,0,14614,KFC,Restaurant/Cafe/Canteen,1,66 Plumstead High Street,,Plumstead,Greenwich,SE18 1SL,,5,fhrs_5_en-gb,2021-08-02T00:00:00,511,Greenwich,http://www.royalgreenwich.gov.uk,health@royalgreenwich.gov.uk,"{'Hygiene': 0, 'Structural': 0, 'ConfidenceInManagement': 0}",FHRS,"{'longitude': 0.0887766, 'latitude': 51.4884997}",,4647.1284804779125,False,"{'dataSource': None, 'extractDate': '0001-01-01T00:00:00', 'itemCount': 0, 'returncode': None, 'totalCount': 0, 'totalPages': 0, 'pageSize': 0, 'pageNumber': 0}","[{'rel': 'self', 'href': 'http://api.ratings.food.gov.uk/establishments/1396464'}]"
43,64a842f9c0f991748bd53274,694595,0,PI/000116249,Co-op Food,Retailers - supermarkets/hypermarkets,7840,196 - 212 Plumstead Common Road,,Plumstead,Greenwich,,,5,fhrs_5_en-gb,2020-11-24T00:00:00,511,Greenwich,http://www.royalgreenwich.gov.uk,health@royalgreenwich.gov.uk,"{'Hygiene': 0, 'Structural': 0, 'ConfidenceInManagement': 0}",FHRS,"{'longitude': 0.0808583091748281, 'latitude': 51.4806876203642}",,4647.130907021743,False,"{'dataSource': None, 'extractDate': '0001-01-01T00:00:00', 'itemCount': 0, 'returncode': None, 'totalCount': 0, 'totalPages': 0, 'pageSize': 0, 'pageNumber': 0}","[{'rel': 'self', 'href': 'http://api.ratings.food.gov.uk/establishments/694595'}]"
44,64a842f9c0f991748bd5329b,1096694,0,12306,Ambala & Karahi Ltd,Restaurant/Cafe/Canteen,1,62A Plumstead High Street,,Plumstead,Greenwich,SE18 1SL,,5,fhrs_5_en-gb,2021-05-17T00:00:00,511,Greenwich,http://www.royalgreenwich.gov.uk,health@royalgreenwich.gov.uk,"{'Hygiene': 0, 'Structural': 0, 'ConfidenceInManagement': 5}",FHRS,"{'longitude': 0.0885648, 'latitude': 51.4885934}",,4647.139639291201,False,"{'dataSource': None, 'extractDate': '0001-01-01T00:00:00', 'itemCount': 0, 'returncode': None, 'totalCount': 0, 'totalPages': 0, 'pageSize': 0, 'pageNumber': 0}","[{'rel': 'self', 'href': 'http://api.ratings.food.gov.uk/establishments/1096694'}]"
45,64a842f9c0f991748bd532c4,1406601,0,14699,Los carnales mexicanos,Mobile caterer,7846,The Ship 205 Plumstead Common Road,,Plumstead,Greenwich,SE18 2UJ,,5,fhrs_5_en-gb,2021-09-01T00:00:00,511,Greenwich,http://www.royalgreenwich.gov.uk,health@royalgreenwich.gov.uk,"{'Hygiene': 0, 'Structural': 0, 'ConfidenceInManagement': 0}",FHRS,"{'longitude': 0.0802144, 'latitude': 51.4810979}",,4647.169432009829,False,"{'dataSource': None, 'extractDate': '0001-01-01T00:00:00', 'itemCount': 0, 'returncode': None, 'totalCount': 0, 'totalPages': 0, 'pageSize': 0, 'pageNumber': 0}","[{'rel': 'self', 'href': 'http://api.ratings.food.gov.uk/establishments/1406601'}]"
46,64a842f9c0f991748bd532d1,944957,0,PI/000183905,Plumstead Common Petrol Station,Retailers - other,4613,Petrol Filling Station 160 - 168 Plumstead Common Road,,Plumstead,Greenwich,SE18 2UL,,5,fhrs_5_en-gb,2021-07-07T00:00:00,511,Greenwich,http://www.royalgreenwich.gov.uk,health@royalgreenwich.gov.uk,"{'Hygiene': 0, 'Structural': 0, 'ConfidenceInManagement': 0}",FHRS,"{'longitude': 0.0793165, 'latitude': 51.4806732}",,4647.18661908045,False,"{'dataSource': None, 'extractDate': '0001-01-01T00:00:00', 'itemCount': 0, 'returncode': None, 'totalCount': 0, 'totalPages': 0, 'pageSize': 0, 'pageNumber': 0}","[{'rel': 'self', 'href': 'http://api.ratings.food.gov.uk/establishments/944957'}]"
47,64a842f9c0f991748bd532d9,695318,0,PI/000182731,East Plumstead Pre School,Caring Premises,5,East Plumstead Baptist Church Griffin Road,,Plumstead,Greenwich,SE18 7PZ,,5,fhrs_5_en-gb,2021-06-23T00:00:00,511,Greenwich,http://www.royalgreenwich.gov.uk,health@royalgreenwich.gov.uk,"{'Hygiene': 0, 'Structural': 0, 'ConfidenceInManagement': 5}",FHRS,"{'longitude': 0.0836590006947517, 'latitude': 51.4845542907715}",,4647.170481326419,False,"{'dataSource': None, 'extractDate': '0001-01-01T00:00:00', 'itemCount': 0, 'returncode': None, 'totalCount': 0, 'totalPages': 0, 'pageSize': 0, 'pageNumber': 0}","[{'rel': 'self', 'href': 'http://api.ratings.food.gov.uk/establishments/695318'}]"
48,64a842f9c0f991748bd532e2,1414426,0,14765,My Home (Plumstead),Other catering premises,7841,107 Griffin Road,,Plumstead,Greenwich,SE18 7QE,,5,fhrs_5_en-gb,2021-10-20T00:00:00,511,Greenwich,http://www.royalgreenwich.gov.uk,health@royalgreenwich.gov.uk,"{'Hygiene': 0, 'Structural': 5, 'ConfidenceInManagement': 5}",FHRS,"{'longitude': 0.0843422, 'latitude': 51.4860247}",,4647.199463988836,False,"{'dataSource': None, 'extractDate': '0001-01-01T00:00:00', 'itemCount': 0, 'returncode': None, 'totalCount': 0, 'totalPages': 0, 'pageSize': 0, 'pageNumber': 0}","[{'rel': 'self', 'href': 'http://api.ratings.food.gov.uk/establishments/1414426'}]"
49,64a842f9c0f991748bd532ea,946290,0,PI/000175176,St Patricks Social Club,Pub/bar/nightclub,7843,Presbytery 1A Conway Road,,Plumstead,Greenwich,SE18 1AQ,,5,fhrs_5_en-gb,2022-02-13T00:00:00,511,Greenwich,http://www.royalgreenwich.gov.uk,health@royalgreenwich.gov.uk,"{'Hygiene': 0, 'Structural': 0, 'ConfidenceInManagement': 0}",FHRS,"{'longitude': 0.0852709, 'latitude': 51.487438}",,4647.217402872906,False,"{'dataSource': None, 'extractDate': '0001-01-01T00:00:00', 'itemCount': 0, 'returncode': None, 'totalCount': 0, 'totalPages': 0, 'pageSize': 0, 'pageNumber': 0}","[{'rel': 'self', 'href': 'http://api.ratings.food.gov.uk/establishments/946290'}]"
50,64a842f9c0f991748bd532eb,1364208,0,14292,Deescon Freight,Retailers - other,4613,24A Plumstead High Street,,Plumstead,Greenwich,,,5,fhrs_5_en-gb,2021-06-02T00:00:00,511,Greenwich,http://www.royalgreenwich.gov.uk,health@royalgreenwich.gov.uk,"{'Hygiene': 0, 'Structural': 0, 'ConfidenceInManagement': 0}",FHRS,"{'longitude': 0.0868772, 'latitude': 51.4890121}",,4647.216530251267,False,"{'dataSource': None, 'extractDate': '0001-01-01T00:00:00', 'itemCount': 0, 'returncode': None, 'totalCount': 0, 'totalPages': 0, 'pageSize': 0, 'pageNumber': 0}","[{'rel': 'self', 'href': 'http://api.ratings.food.gov.uk/establishments/1364208'}]"
51,64a842f9c0f991748bd532f7,1096711,0,12333,Star INN,Pub/bar/nightclub,7843,Star Inn 158 Plumstead Common Road,,Plumstead,Greenwich,SE18 2UL,,5,fhrs_5_en-gb,2021-06-24T00:00:00,511,Greenwich,http://www.royalgreenwich.gov.uk,health@royalgreenwich.gov.uk,"{'Hygiene': 0, 'Structural': 5, 'ConfidenceInManagement': 5}",FHRS,"{'longitude': 0.0785060003399849, 'latitude': 51.4808120727539}",,4647.221273650149,False,"{'dataSource': None, 'extractDate': '0001-01-01T00:00:00', 'itemCount': 0, 'returncode': None, 'totalCount': 0, 'totalPages': 0, 'pageSize': 0, 'pageNumber': 0}","[{'rel': 'self', 'href': 'http://api.ratings.food.gov.uk/establishments/1096711'}]"
52,64a842f9c0f991748bd53301,695460,0,PI/000186310,Bear Hugs Day Nursery,Caring Premises,5,104 Waverley Road,,Plumstead,Greenwich,SE18 7TJ,,5,fhrs_5_en-gb,2021-07-20T00:00:00,511,Greenwich,http://www.royalgreenwich.gov.uk,health@royalgreenwich.gov.uk,"{'Hygiene': 0, 'Structural': 5, 'ConfidenceInManagement': 5}",FHRS,"{'longitude': 0.0812914, 'latitude': 51.4838756}",,4647.231957291895,False,"{'dataSource': None, 'extractDate': '0001-01-01T00:00:00', 'itemCount': 0, 'returncode': None, 'totalCount': 0, 'totalPages': 0, 'pageSize': 0, 'pageNumber': 0}","[{'rel': 'self', 'href': 'http://api.ratings.food.gov.uk/establishments/695460'}]"
53,64a842f9c0f991748bd53304,781130,0,PI/000198036,Roundhouse Food and Wine,Retailers - other,4613,1 Waverley Crescent,,Plumstead,Greenwich,SE18 7QT,,5,fhrs_5_en-gb,2020-11-17T00:00:00,511,Greenwich,http://www.royalgreenwich.gov.uk,health@royalgreenwich.gov.uk,"{'Hygiene': 0, 'Structural': 0, 'ConfidenceInManagement': 0}",FHRS,"{'longitude': 0.0820677, 'latitude': 51.4847465}",,4647.235565071208,False,"{'dataSource': None, 'extractDate': '0001-01-01T00:00:00', 'itemCount': 0, 'returncode': None, 'totalCount': 0, 'totalPages': 0, 'pageSize': 0, 'pageNumber': 0}","[{'rel': 'self', 'href': 'http://api.ratings.food.gov.uk/establishments/781130'}]"
54,64a842f9c0f991748bd53311,1156705,0,12850,U&A Foods Ltd,Retailers - other,4613,16 - 20 Plumstead High Street,,Plumstead,Greenwich,SE18 1SN,,5,fhrs_5_en-gb,2022-06-07T00:00:00,511,Greenwich,http://www.royalgreenwich.gov.uk,health@royalgreenwich.gov.uk,"{'Hygiene': 0, 'Structural': 5, 'ConfidenceInManagement': 0}",FHRS,"{'longitude': 0.086187, 'latitude': 51.4892023}",,4647.248672319719,False,"{'dataSource': None, 'extractDate': '0001-01-01T00:00:00', 'itemCount': 0, 'returncode': None, 'totalCount': 0, 'totalPages': 0, 'pageSize': 0, 'pageNumber': 0}","[{'rel': 'self', 'href': 'http://api.ratings.food.gov.uk/establishments/1156705'}]"
55,64a842f9c0f991748bd53312,1274352,0,13693,St. Patrick's School,School/college/university,7845,St Patricks Rc School Griffin Road,,Plumstead,Greenwich,SE18 7QG,,5,fhrs_5_en-gb,2021-10-20T00:00:00,511,Greenwich,http://www.royalgreenwich.gov.uk,health@royalgreenwich.gov.uk,"{'Hygiene': 0, 'Structural': 0, 'ConfidenceInManagement': 0}",FHRS,"{'longitude': 0.0853480026125908, 'latitude': 51.4884185791016}",,4647.250537636702,False,"{'dataSource': None, 'extractDate': '0001-01-01T00:00:00', 'itemCount': 0, 'returncode': None, 'totalCount': 0, 'totalPages': 0, 'pageSize': 0, 'pageNumber': 0}","[{'rel': 'self', 'href': 'http://api.ratings.food.gov.uk/establishments/1274352'}]"
56,64a842f9c0f991748bd53317,695597,0,PI/000189492,Kings Cafe,Restaurant/Cafe/Canteen,1,14 Plumstead High Street,,Plumstead,Greenwich,SE18 1SN,,5,fhrs_5_en-gb,2020-10-15T00:00:00,511,Greenwich,http://www.royalgreenwich.gov.uk,health@royalgreenwich.gov.uk,"{'Hygiene': 0, 'Structural': 0, 'ConfidenceInManagement': 0}",FHRS,"{'longitude': 0.0861158, 'latitude': 51.4892216}",,4647.25197628555,False,"{'dataSource': None, 'extractDate': '0001-01-01T00:00:00', 'itemCount': 0, 'returncode': None, 'totalCount': 0, 'totalPages': 0, 'pageSize': 0, 'pageNumber': 0}","[{'rel': 'self', 'href': 'http://api.ratings.food.gov.uk/establishments/695597'}]"
57,64a842f9c0f991748bd5331a,695658,0,PI/000191228,Peace Manor Residential Care,Caring Premises,5,68 Waverley Road,,Plumstead,Greenwich,SE18 7TJ,,5,fhrs_5_en-gb,2021-06-09T00:00:00,511,Greenwich,http://www.royalgreenwich.gov.uk,health@royalgreenwich.gov.uk,"{'Hygiene': 0, 'Structural': 0, 'ConfidenceInManagement': 0}",FHRS,"{'longitude': 0.0814574, 'latitude': 51.484673}",,4647.255130227849,False,"{'dataSource': None, 'extractDate': '0001-01-01T00:00:00', 'itemCount': 0, 'returncode': None, 'totalCount': 0, 'totalPages': 0, 'pageSize': 0, 'pageNumber': 0}","[{'rel': 'self', 'href': 'http://api.ratings.food.gov.uk/establishments/695658'}]"
58,64a842f9c0f991748bd5333d,841434,0,PI/000195531,The Eggfree Cake Box (Plumstead),Retailers - other,4613,Shop 18 Lakedale Road,,Plumstead,Greenwich,,,5,fhrs_5_en-gb,2021-06-16T00:00:00,511,Greenwich,http://www.royalgreenwich.gov.uk,health@royalgreenwich.gov.uk,"{'Hygiene': 0, 'Structural': 0, 'ConfidenceInManagement': 5}",FHRS,"{'longitude': 0.0857344851907352, 'latitude': 51.4896464707035}",,4647.281457151035,False,"{'dataSource': None, 'extractDate': '0001-01-01T00:00:00', 'itemCount': 0, 'returncode': None, 'totalCount': 0, 'totalPages': 0, 'pageSize': 0, 'pageNumber': 0}","[{'rel': 'self', 'href': 'http://api.ratings.food.gov.uk/establishments/841434'}]"
59,64a842f9c0f991748bd53343,695243,0,PI/000179117,Danfe Restaurant,Restaurant/Cafe/Canteen,1,89 Walmer Terrace,,Plumstead,Greenwich,SE18 7DZ,,5,fhrs_5_en-gb,2020-08-21T00:00:00,511,Greenwich,http://www.royalgreenwich.gov.uk,health@royalgreenwich.gov.uk,"{'Hygiene': 0, 'Structural': 5, 'ConfidenceInManagement': 0}",FHRS,"{'longitude': 0.0853618, 'latitude': 51.4893348}",,4647.283622124108,False,"{'dataSource': None, 'extractDate': '0001-01-01T00:00:00', 'itemCount': 0, 'returncode': None, 'totalCount': 0, 'totalPages': 0, 'pageSize': 0, 'pageNumber': 0}","[{'rel': 'self', 'href': 'http://api.ratings.food.gov.uk/establishments/695243'}]"
60,64a842f9c0f991748bd53376,695316,0,PI/000182673,McDonald's,Restaurant/Cafe/Canteen,1,3 Pettman Crescent,,Thamesmead,Greenwich,SE28 0FF,,5,fhrs_5_en-gb,2021-01-27T00:00:00,511,Greenwich,http://www.royalgreenwich.gov.uk,health@royalgreenwich.gov.uk,"{'Hygiene': 0, 'Structural': 0, 'ConfidenceInManagement': 0}",FHRS,"{'longitude': 0.0853967, 'latitude': 51.4908567}",,4647.338141327896,False,"{'dataSource': None, 'extractDate': '0001-01-01T00:00:00', 'itemCount': 0, 'returncode': None, 'totalCount': 0, 'totalPages': 0, 'pageSize': 0, 'pageNumber': 0}","[{'rel': 'self', 'href': 'http://api.ratings.food.gov.uk/establishments/695316'}]"
61,64a842f9c0f991748bd53383,694635,0,PI/000117510,Jhas Catering Services,Other catering premises,7841,153 Plumstead Road,,Woolwich,Greenwich,SE18 7DY,,5,fhrs_5_en-gb,2021-09-28T00:00:00,511,Greenwich,http://www.royalgreenwich.gov.uk,health@royalgreenwich.gov.uk,"{'Hygiene': 0, 'Structural': 5, 'ConfidenceInManagement': 0}",FHRS,"{'longitude': 0.0842824, 'latitude': 51.4900815}",,4647.350357398108,False,"{'dataSource': None, 'extractDate': '0001-01-01T00:00:00', 'itemCount': 0, 'returncode': None, 'totalCount': 0, 'totalPages': 0, 'pageSize': 0, 'pageNumber': 0}","[{'rel': 'self', 'href': 'http://api.ratings.food.gov.uk/establishments/694635'}]"
62,64a842f9c0f991748bd53385,694127,0,PI/000020378,D J Off Licence,Retailers - other,4613,13A Brewery Road,,Plumstead,Greenwich,SE18 7PS,,5,fhrs_5_en-gb,2022-04-28T00:00:00,511,Greenwich,http://www.royalgreenwich.gov.uk,health@royalgreenwich.gov.uk,"{'Hygiene': 0, 'Structural': 0, 'ConfidenceInManagement': 0}",FHRS,"{'longitude': 0.0801741, 'latitude': 51.4862246}",,4647.3588064361675,False,"{'dataSource': None, 'extractDate': '0001-01-01T00:00:00', 'itemCount': 0, 'returncode': None, 'totalCount': 0, 'totalPages': 0, 'pageSize': 0, 'pageNumber': 0}","[{'rel': 'self', 'href': 'http://api.ratings.food.gov.uk/establishments/694127'}]"
63,64a842f9c0f991748bd5338a,1516611,0,15208,Waterside Primary School,School/college/university,7845,Waterside Primary School Robert Street,,Plumstead,Greenwich,SE18 7NB,,5,fhrs_5_en-gb,2022-04-28T00:00:00,511,Greenwich,http://www.royalgreenwich.gov.uk,health@royalgreenwich.gov.uk,"{'Hygiene': 0, 'Structural': 0, 'ConfidenceInManagement': 0}",FHRS,"{'longitude': 0.0810069963335991, 'latitude': 51.4873504638672}",,4647.369696832296,False,"{'dataSource': None, 'extractDate': '0001-01-01T00:00:00', 'itemCount': 0, 'returncode': None, 'totalCount': 0, 'totalPages': 0, 'pageSize': 0, 'pageNumber': 0}","[{'rel': 'self', 'href': 'http://api.ratings.food.gov.uk/establishments/1516611'}]"
64,64a842f9c0f991748bd5338d,1319113,0,14007,Suya Academy Ltd,Restaurant/Cafe/Canteen,1,148 Plumstead Road,,Woolwich,Greenwich,SE18 7DY,,5,fhrs_5_en-gb,2021-03-17T00:00:00,511,Greenwich,http://www.royalgreenwich.gov.uk,health@royalgreenwich.gov.uk,"{'Hygiene': 0, 'Structural': 5, 'ConfidenceInManagement': 5}",FHRS,"{'longitude': 0.0839974, 'latitude': 51.4901495}",,4647.363243146434,False,"{'dataSource': None, 'extractDate': '0001-01-01T00:00:00', 'itemCount': 0, 'returncode': None, 'totalCount': 0, 'totalPages': 0, 'pageSize': 0, 'pageNumber': 0}","[{'rel': 'self', 'href': 'http://api.ratings.food.gov.uk/establishments/1319113'}]"
65,64a842f9c0f991748bd5338f,694830,0,PI/000152588,Om Stop & Go,Retailers - other,4613,75 Vicarage Road,,Plumstead,Greenwich,SE18 7ST,,5,fhrs_5_en-gb,2021-06-24T00:00:00,511,Greenwich,http://www.royalgreenwich.gov.uk,health@royalgreenwich.gov.uk,"{'Hygiene': 0, 'Structural': 0, 'ConfidenceInManagement': 5}",FHRS,"{'longitude': 0.0771598, 'latitude': 51.4835927}",,4647.37228646955,False,"{'dataSource': None, 'extractDate': '0001-01-01T00:00:00', 'itemCount': 0, 'returncode': None, 'totalCount': 0, 'totalPages': 0, 'pageSize': 0, 'pageNumber': 0}","[{'rel': 'self', 'href': 'http://api.ratings.food.gov.uk/establishments/694830'}]"
66,64a842f9c0f991748bd53394,1489067,0,15088,Wilson & Bay Coffee Club,Takeaway/sandwich shop,7844,Plumstead Railway Station Walmer Terrace,,Plumstead,Greenwich,SE18 7EA,,5,fhrs_5_en-gb,2021-12-09T00:00:00,511,Greenwich,http://www.royalgreenwich.gov.uk,health@royalgreenwich.gov.uk,"{'Hygiene': 0, 'Structural': 0, 'ConfidenceInManagement': 0}",FHRS,"{'longitude': 0.0839053, 'latitude': 51.4897501}",,4647.351960555438,False,"{'dataSource': None, 'extractDate': '0001-01-01T00:00:00', 'itemCount': 0, 'returncode': None, 'totalCount': 0, 'totalPages': 0, 'pageSize': 0, 'pageNumber': 0}","[{'rel': 'self', 'href': 'http://api.ratings.food.gov.uk/establishments/1489067'}]"
67,64a842f9c0f991748bd533ae,694848,0,PI/000155368,The Rose Inn,Pub/bar/nightclub,7843,Rose Inn 2 Waverley Road,,Plumstead,Greenwich,SE18 7TN,,5,fhrs_5_en-gb,2021-09-13T00:00:00,511,Greenwich,http://www.royalgreenwich.gov.uk,health@royalgreenwich.gov.uk,"{'Hygiene': 0, 'Structural': 0, 'ConfidenceInManagement': 5}",FHRS,"{'longitude': 0.0789717, 'latitude': 51.486075}",,4647.397177213795,False,"{'dataSource': None, 'extractDate': '0001-01-01T00:00:00', 'itemCount': 0, 'returncode': None, 'totalCount': 0, 'totalPages': 0, 'pageSize': 0, 'pageNumber': 0}","[{'rel': 'self', 'href': 'http://api.ratings.food.gov.uk/establishments/694848'}]"
68,64a842f9c0f991748bd533b9,1392055,0,14546,Greenwich Islamic Centre,Takeaway/sandwich shop,7844,131 Plumstead Road,,Woolwich,Greenwich,SE18 7DW,,5,fhrs_5_en-gb,2021-08-05T00:00:00,511,Greenwich,http://www.royalgreenwich.gov.uk,health@royalgreenwich.gov.uk,"{'Hygiene': 0, 'Structural': 0, 'ConfidenceInManagement': 5}",FHRS,"{'longitude': 0.0824813, 'latitude': 51.4903258}",,4647.424993236639,False,"{'dataSource': None, 'extractDate': '0001-01-01T00:00:00', 'itemCount': 0, 'returncode': None, 'totalCount': 0, 'totalPages': 0, 'pageSize': 0, 'pageNumber': 0}","[{'rel': 'self', 'href': 'http://api.ratings.food.gov.uk/establishments/1392055'}]"
69,64a842f9c0f991748bd533bf,1380581,0,14428,Bal Krishna Nursery,Caring Premises,5,Shree K S Swaminarayan Temple St Margarets Grove,,Plumstead,Greenwich,SE18 7RL,,5,fhrs_5_en-gb,2021-06-30T00:00:00,511,Greenwich,http://www.royalgreenwich.gov.uk,health@royalgreenwich.gov.uk,"{'Hygiene': 0, 'Structural': 0, 'ConfidenceInManagement': 0}",FHRS,"{'longitude': 0.0743729993700981, 'latitude': 51.4824256896973}",,4647.431170631692,False,"{'dataSource': None, 'extractDate': '0001-01-01T00:00:00', 'itemCount': 0, 'returncode': None, 'totalCount': 0, 'totalPages': 0, 'pageSize': 0, 'pageNumber': 0}","[{'rel': 'self', 'href': 'http://api.ratings.food.gov.uk/establishments/1380581'}]"
70,64a842f9c0f991748bd533c3,942472,0,PI/000202326,St Margaret's C of E Primary School,School/college/university,7845,St Margarets Ce Primary School St Margarets Grove,,Plumstead,Greenwich,SE18 7RL,,5,fhrs_5_en-gb,2021-03-02T00:00:00,511,Greenwich,http://www.royalgreenwich.gov.uk,health@royalgreenwich.gov.uk,"{'Hygiene': 0, 'Structural': 0, 'ConfidenceInManagement': 5}",FHRS,"{'longitude': 0.074412003159523, 'latitude': 51.4824142456055}",,4647.429328489944,False,"{'dataSource': None, 'extractDate': '0001-01-01T00:00:00', 'itemCount': 0, 'returncode': None, 'totalCount': 0, 'totalPages': 0, 'pageSize': 0, 'pageNumber': 0}","[{'rel': 'self', 'href': 'http://api.ratings.food.gov.uk/establishments/942472'}]"
71,64a842f9c0f991748bd533d0,717480,0,PI/000182602,Quaggy at Margaret Bondfield,Caring Premises,5,Margaret Bondfield Centre Raglan Road,,Plumstead,Greenwich,SE18 7LB,,5,fhrs_5_en-gb,2021-05-25T00:00:00,511,Greenwich,http://www.royalgreenwich.gov.uk,health@royalgreenwich.gov.uk,"{'Hygiene': 0, 'Structural': 0, 'ConfidenceInManagement': 0}",FHRS,"{'longitude': 0.0776320025324821, 'latitude': 51.4863967895508}",,4647.457833237081,False,"{'dataSource': None, 'extractDate': '0001-01-01T00:00:00', 'itemCount': 0, 'returncode': None, 'totalCount': 0, 'totalPages': 0, 'pageSize': 0, 'pageNumber': 0}","[{'rel': 'self', 'href': 'http://api.ratings.food.gov.uk/establishments/717480'}]"
72,64a842f9c0f991748bd533d2,695003,0,PI/000171503,Tesco,Retailers - supermarkets/hypermarkets,7840,7 - 8 Thames Reach,,Thamesmead,Greenwich,SE28 0NY,,5,fhrs_5_en-gb,2020-02-22T00:00:00,511,Greenwich,http://www.royalgreenwich.gov.uk,health@royalgreenwich.gov.uk,"{'Hygiene': 0, 'Structural': 0, 'ConfidenceInManagement': 5}",FHRS,"{'longitude': 0.0902181, 'latitude': 51.4989512}",,4647.459121108046,False,"{'dataSource': None, 'extractDate': '0001-01-01T00:00:00', 'itemCount': 0, 'returncode': None, 'totalCount': 0, 'totalPages': 0, 'pageSize': 0, 'pageNumber': 0}","[{'rel': 'self', 'href': 'http://api.ratings.food.gov.uk/establishments/695003'}]"
73,64a842f9c0f991748bd533d6,1497306,0,15147,Fresh Chances,Other catering premises,7841,Glyndon Community Centre 75 Raglan Road,,Plumstead,Greenwich,SE18 7LB,,5,fhrs_5_en-gb,2022-07-28T00:00:00,511,Greenwich,http://www.royalgreenwich.gov.uk,health@royalgreenwich.gov.uk,"{'Hygiene': 0, 'Structural': 0, 'ConfidenceInManagement': 0}",FHRS,"{'longitude': 0.0776292, 'latitude': 51.4863955}",,4647.457888189552,False,"{'dataSource': None, 'extractDate': '0001-01-01T00:00:00', 'itemCount': 0, 'returncode': None, 'totalCount': 0, 'totalPages': 0, 'pageSize': 0, 'pageNumber': 0}","[{'rel': 'self', 'href': 'http://api.ratings.food.gov.uk/establishments/1497306'}]"
74,64a842f9c0f991748bd533e1,695236,0,PI/000179022,Domino's Pizza,Takeaway/sandwich shop,7844,1 Thames Reach,,Thamesmead,Greenwich,SE28 0NY,,5,fhrs_5_en-gb,2021-06-26T00:00:00,511,Greenwich,http://www.royalgreenwich.gov.uk,health@royalgreenwich.gov.uk,"{'Hygiene': 0, 'Structural': 0, 'ConfidenceInManagement': 0}",FHRS,"{'longitude': 0.0895991, 'latitude': 51.4987492}",,4647.474280861752,False,"{'dataSource': None, 'extractDate': '0001-01-01T00:00:00', 'itemCount': 0, 'returncode': None, 'totalCount': 0, 'totalPages': 0, 'pageSize': 0, 'pageNumber': 0}","[{'rel': 'self', 'href': 'http://api.ratings.food.gov.uk/establishments/695236'}]"
75,64a842f9c0f991748bd5342c,694697,0,PI/000129723,Ashgreen House,Caring Premises,5,Ashgreen House 52 Sandbach Place,,Plumstead,Greenwich,SE18 7EX,,5,fhrs_5_en-gb,2021-05-25T00:00:00,511,Greenwich,http://www.royalgreenwich.gov.uk,health@royalgreenwich.gov.uk,"{'Hygiene': 0, 'Structural': 0, 'ConfidenceInManagement': 0}",FHRS,"{'longitude': 0.075984999537468, 'latitude': 51.4871520996094}",,4647.54558567912,False,"{'dataSource': None, 'extractDate': '0001-01-01T00:00:00', 'itemCount': 0, 'returncode': None, 'totalCount': 0, 'totalPages': 0, 'pageSize': 0, 'pageNumber': 0}","[{'rel': 'self', 'href': 'http://api.ratings.food.gov.uk/establishments/694697'}]"
76,64a842f9c0f991748bd53433,1385143,0,14493,Heronsgate Primary School Thamesmead Campus,School/college/university,7845,Whinchat Road,,London,,SE28 0EA,,5,fhrs_5_en-gb,2021-11-03T00:00:00,511,Greenwich,http://www.royalgreenwich.gov.uk,health@royalgreenwich.gov.uk,"{'Hygiene': 0, 'Structural': 5, 'ConfidenceInManagement': 0}",FHRS,"{'longitude': 0.0827509984374046, 'latitude': 51.4940567016602}",,4647.551924205384,False,"{'dataSource': None, 'extractDate': '0001-01-01T00:00:00', 'itemCount': 0, 'returncode': None, 'totalCount': 0, 'totalPages': 0, 'pageSize': 0, 'pageNumber': 0}","[{'rel': 'self', 'href': 'http://api.ratings.food.gov.uk/establishments/1385143'}]"
77,64a842f9c0f991748bd53444,694900,0,PI/000161057,Breakfast Club,School/college/university,7845,Heronsgate Primary School Whinchat Road,,Thamesmead,Greenwich,SE28 0DW,,5,fhrs_5_en-gb,2021-05-05T00:00:00,511,Greenwich,http://www.royalgreenwich.gov.uk,health@royalgreenwich.gov.uk,"{'Hygiene': 0, 'Structural': 0, 'ConfidenceInManagement': 0}",FHRS,"{'longitude': 0.0835620015859604, 'latitude': 51.4950485229492}",,4647.558711804182,False,"{'dataSource': None, 'extractDate': '0001-01-01T00:00:00', 'itemCount': 0, 'returncode': None, 'totalCount': 0, 'totalPages': 0, 'pageSize': 0, 'pageNumber': 0}","[{'rel': 'self', 'href': 'http://api.ratings.food.gov.uk/establishments/694900'}]"
78,64a842f9c0f991748bd53446,695385,0,PI/000184451,BR6,School/college/university,7845,95 Plumstead Road,,Woolwich,Greenwich,SE18 7DQ,,5,fhrs_5_en-gb,2020-09-28T00:00:00,511,Greenwich,http://www.royalgreenwich.gov.uk,health@royalgreenwich.gov.uk,"{'Hygiene': 0, 'Structural': 0, 'ConfidenceInManagement': 0}",FHRS,"{'longitude': 0.0787421, 'latitude': 51.4903331}",,4647.56162094585,False,"{'dataSource': None, 'extractDate': '0001-01-01T00:00:00', 'itemCount': 0, 'returncode': None, 'totalCount': 0, 'totalPages': 0, 'pageSize': 0, 'pageNumber': 0}","[{'rel': 'self', 'href': 'http://api.ratings.food.gov.uk/establishments/695385'}]"
79,64a842f9c0f991748bd53448,695707,0,PI/000192457,Catering & Hospitality Education Dep,School/college/university,7845,95 Plumstead Road,,Woolwich,Greenwich,SE18 7DQ,,5,fhrs_5_en-gb,2020-10-20T00:00:00,511,Greenwich,http://www.royalgreenwich.gov.uk,health@royalgreenwich.gov.uk,"{'Hygiene': 0, 'Structural': 0, 'ConfidenceInManagement': 0}",FHRS,"{'longitude': 0.0787421, 'latitude': 51.4903331}",,4647.56162094585,False,"{'dataSource': None, 'extractDate': '0001-01-01T00:00:00', 'itemCount': 0, 'returncode': None, 'totalCount': 0, 'totalPages': 0, 'pageSize': 0, 'pageNumber': 0}","[{'rel': 'self', 'href': 'http://api.ratings.food.gov.uk/establishments/695707'}]"
80,64a842f9c0f991748bd5349b,1154241,0,12817,The Real Deal,Other catering premises,7841,190 Whinchat Road,,Thamesmead,Greenwich,SE28 0DR,,5,fhrs_5_en-gb,2020-07-30T00:00:00,511,Greenwich,http://www.royalgreenwich.gov.uk,health@royalgreenwich.gov.uk,"{'Hygiene': 0, 'Structural': 0, 'ConfidenceInManagement': 0}",FHRS,"{'longitude': 0.0844204, 'latitude': 51.4978398}",,4647.629743175956,False,"{'dataSource': None, 'extractDate': '0001-01-01T00:00:00', 'itemCount': 0, 'returncode': None, 'totalCount': 0, 'totalPages': 0, 'pageSize': 0, 'pageNumber': 0}","[{'rel': 'self', 'href': 'http://api.ratings.food.gov.uk/establishments/1154241'}]"
81,64a842f9c0f991748bd534c5,1226526,0,13338,Borna,Manufacturers/packers,7839,Unit 14 I O Centre Seymour Street,,Woolwich,Greenwich,SE18 6SX,,5,fhrs_5_en-gb,2020-09-22T00:00:00,511,Greenwich,http://www.royalgreenwich.gov.uk,health@royalgreenwich.gov.uk,"{'Hygiene': 0, 'Structural': 0, 'ConfidenceInManagement': 0}",FHRS,"{'longitude': 0.0774802, 'latitude': 51.4918377}",,4647.66278774447,False,"{'dataSource': None, 'extractDate': '0001-01-01T00:00:00', 'itemCount': 0, 'returncode': None, 'totalCount': 0, 'totalPages': 0, 'pageSize': 0, 'pageNumber': 0}","[{'rel': 'self', 'href': 'http://api.ratings.food.gov.uk/establishments/1226526'}]"
82,64a842f9c0f991748bd534d9,694051,0,PI/000002353,Blossom Place Olive Services,Caring Premises,5,28 Allenby Road,,Thamesmead,Greenwich,SE28 0BN,,5,fhrs_5_en-gb,2021-04-21T00:00:00,511,Greenwich,http://www.royalgreenwich.gov.uk,health@royalgreenwich.gov.uk,"{'Hygiene': 0, 'Structural': 5, 'ConfidenceInManagement': 0}",FHRS,"{'longitude': 0.0795886, 'latitude': 51.4942476}",,4647.674235398116,False,"{'dataSource': None, 'extractDate': '0001-01-01T00:00:00', 'itemCount': 0, 'returncode': None, 'totalCount': 0, 'totalPages': 0, 'pageSize': 0, 'pageNumber': 0}","[{'rel': 'self', 'href': 'http://api.ratings.food.gov.uk/establishments/694051'}]"
83,64a842f9c0f991748bd53501,1112594,0,12607,Menagerie Cafe,Restaurant/Cafe/Canteen,1,Menagerie Cafe Unit 9 The I O Centre Skeffington Street,,Woolwich,Greenwich,SE18 6SR,,5,fhrs_5_en-gb,2020-09-08T00:00:00,511,Greenwich,http://www.royalgreenwich.gov.uk,health@royalgreenwich.gov.uk,"{'Hygiene': 0, 'Structural': 5, 'ConfidenceInManagement': 0}",FHRS,"{'longitude': 0.075545996427536, 'latitude': 51.4914321899414}",,4647.718461705105,False,"{'dataSource': None, 'extractDate': '0001-01-01T00:00:00', 'itemCount': 0, 'returncode': None, 'totalCount': 0, 'totalPages': 0, 'pageSize': 0, 'pageNumber': 0}","[{'rel': 'self', 'href': 'http://api.ratings.food.gov.uk/establishments/1112594'}]"
84,64a842f9c0f991748bd5350d,1468524,0,15011,Innova Nutraceutics Ltd,Retailers - other,4613,Unit 21 - 22 The I O Centre Armstrong Road,,Woolwich,Greenwich,SE18 6RS,,5,fhrs_5_en-gb,2022-08-09T00:00:00,511,Greenwich,http://www.royalgreenwich.gov.uk,health@royalgreenwich.gov.uk,"{'Hygiene': 0, 'Structural': 0, 'ConfidenceInManagement': 0}",FHRS,"{'longitude': 0.0770593, 'latitude': 51.4935863}",,4647.742227445188,False,"{'dataSource': None, 'extractDate': '0001-01-01T00:00:00', 'itemCount': 0, 'returncode': None, 'totalCount': 0, 'totalPages': 0, 'pageSize': 0, 'pageNumber': 0}","[{'rel': 'self', 'href': 'http://api.ratings.food.gov.uk/establishments/1468524'}]"
85,64a842f9c0f991748bd5353e,1243199,0,13395,Foodelo,Retailers - other,4613,5 Gunnery Terrace Cornwallis Road,,Woolwich,Greenwich,SE18 6SW,,5,fhrs_5_en-gb,2021-02-04T00:00:00,511,Greenwich,http://www.royalgreenwich.gov.uk,health@royalgreenwich.gov.uk,"{'Hygiene': 0, 'Structural': 0, 'ConfidenceInManagement': 0}",FHRS,"{'longitude': 0.0744580030441284, 'latitude': 51.4923133850098}",,4647.790435013738,False,"{'dataSource': None, 'extractDate': '0001-01-01T00:00:00', 'itemCount': 0, 'returncode': None, 'totalCount': 0, 'totalPages': 0, 'pageSize': 0, 'pageNumber': 0}","[{'rel': 'self', 'href': 'http://api.ratings.food.gov.uk/establishments/1243199'}]"
86,64a842f9c0f991748bd53551,1388277,0,14533,Brighter Futures Project,School/college/university,7845,Unit 6 9 - 11 Gunnery Terrace Cornwallis Road,,Woolwich,Greenwich,SE18 6SW,,5,fhrs_5_en-gb,2021-08-02T00:00:00,511,Greenwich,http://www.royalgreenwich.gov.uk,health@royalgreenwich.gov.uk,"{'Hygiene': 0, 'Structural': 0, 'ConfidenceInManagement': 0}",FHRS,"{'longitude': 0.0739989, 'latitude': 51.4922421}",,4647.804565120756,False,"{'dataSource': None, 'extractDate': '0001-01-01T00:00:00', 'itemCount': 0, 'returncode': None, 'totalCount': 0, 'totalPages': 0, 'pageSize': 0, 'pageNumber': 0}","[{'rel': 'self', 'href': 'http://api.ratings.food.gov.uk/establishments/1388277'}]"
